STARLINK-1712           
1 46581U 20070BB  26063.83336806  .00551271  13815-3  12746-2 0  9991
2 46581  53.0298 105.3782 0006752 344.7003 245.4665 15.96602257  5965
STARLINK-1955           
1 47556U 21009J   26063.83336806  .00503029  11127-3  13933-2 0  9998
2 47556  53.0358 349.9870 0003342 136.4395 271.1601 15.93284326  5978
WILDTRACKCUBE-SIMBA     
1 47941U 21022K   26063.88094338  .03070808  24537-5  12257-2 0  9993
2 47941  97.3793 345.8568 0005381 139.9164 220.2525 16.23643125275076
JILIN-1 GAOFEN 3D02     
1 49005U 21061C   26063.83658580  .01706709  26639-2  12998-2 0  9997
2 49005  97.2892 144.4724 0005190 252.6076 107.4643 16.15821133260033
STARLINK-3269           
1 50194U 21125AQ  26063.69130226  .04021278  11937-4  15017-2 0  9991
2 50194  53.1953 155.8783 0009737 339.0732  20.9909 16.23589858237520
LYNK TOWER 1            
1 52162U 22033F   26063.21889117  .00752707  31231-3  81573-3 0  9998
2 52162  97.2538 168.4303 0005931 200.6516 159.4529 16.09956223220366
STARLINK-3767           
1 52376U 22045AX  26063.81561228  .01135811  67446-3  20750-2 0  9992
2 52376  53.2118 197.1968 0002131 116.2646 243.8605 16.00912442215385
NUSAT-28 (ALICE LEE)    
1 52747U 22057R   26063.82936425  .00539363  12448-3  12523-2 0  9993
2 52747  97.4997 213.1869 0007271 287.7829  72.2654 15.97071564211276
STARLINK-6201           
1 56486U 23064AQ  26063.83336806  .01148568  64871-3  26379-2 0  9999
2 56486  69.9954 127.4501 0003910 286.1026 322.3801 15.97247258  5904
SHIYAN-25 (SY-25)       
1 57047U 23087A   26063.84172428  .00019581  21099-5  37369-4 0  9998
2 57047  96.7167 124.9290 0011779 244.8362 115.1697 16.00985261158116
STARLINK-6151           
1 57118U 23090T   26063.73300418  .01964453  88965-5  10233-2 0  9993
2 57118  42.9685 178.9147 0015263 351.0840   8.9772 16.19002035151088
STARLINK-30210          
1 57292U 23096C   26063.71279788  .00989592  51802-3  13700-2 0  9995
2 57292  42.9631 166.7551 0024168   7.6172 352.5071 16.04615991147712
STARLINK-30232          
1 57303U 23096P   26063.73684080  .00968144  49776-3  12982-2 0  9993
2 57303  42.9705 166.1845 0023819   8.4490 351.6787 16.05141302147705
QIANKUN-1               
1 57422U 23103B   26063.53911761  .00000477  16856-5  11119-5 0  9996
2 57422  96.1940 115.4027 0026181 168.6193 191.5691 16.08867585150487
OBJECT B                
1 57425U 23104B   26063.84146633  .00303719  37453-4  84480-3 0  9991
2 57425  97.2682 152.2761 0002505 317.5534  42.5547 15.93739527147306
