[{"OBJECT_NAME":"STARLINK-1712","OBJECT_ID":"2020-070BB","EPOCH":"2026-03-04T20:00:03.000384","MEAN_MOTION":15.96602257,"ECCENTRICITY":0.0006752,"INCLINATION":53.0298,"RA_OF_ASC_NODE":105.3782,"ARG_OF_PERICENTER":344.7003,"MEAN_ANOMALY":245.4665,"EPHEMERIS_TYPE":0,"CLASSIFICATION_TYPE":"U","NORAD_CAT_ID":46581,"ELEMENT_SET_NO":999,"REV_AT_EPOCH":596,"BSTAR":0.0012746,"MEAN_MOTION_DOT":0.00551271,"MEAN_MOTION_DDOT":0.00013815},{"OBJECT_NAME":"STARLINK-1955","OBJECT_ID":"2021-009J","EPOCH":"2026-03-04T20:00:03.000384","MEAN_MOTION":15.93284326,"ECCENTRICITY":0.0003342,"INCLINATION":53.0358,"RA_OF_ASC_NODE":349.987,"ARG_OF_PERICENTER":136.4395,"MEAN_ANOMALY":271.1601,"EPHEMERIS_TYPE":0,"CLASSIFICATION_TYPE":"U","NORAD_CAT_ID":47556,"ELEMENT_SET_NO":999,"REV_AT_EPOCH":597,"BSTAR":0.0013933,"MEAN_MOTION_DOT":0.00503029,"MEAN_MOTION_DDOT":0.00011127},{"OBJECT_NAME":"WILDTRACKCUBE-SIMBA","OBJECT_ID":"2021-022K","EPOCH":"2026-03-04T21:08:33.508032","MEAN_MOTION":16.23643125,"ECCENTRICITY":0.0005381,"INCLINATION":97.3793,"RA_OF_ASC_NODE":345.8568,"ARG_OF_PERICENTER":139.9164,"MEAN_ANOMALY":220.2525,"EPHEMERIS_TYPE":0,"CLASSIFICATION_TYPE":"U","NORAD_CAT_ID":47941,"ELEMENT_SET_NO":999,"REV_AT_EPOCH":27507,"BSTAR":0.0012257,"MEAN_MOTION_DOT":0.03070808,"MEAN_MOTION_DDOT":2.4537e-6},{"OBJECT_NAME":"JILIN-1 GAOFEN 3D02","OBJECT_ID":"2021-061C","EPOCH":"2026-03-04T20:04:41.013120","MEAN_MOTION":16.15821133,"ECCENTRICITY":0.000519,"INCLINATION":97.2892,"RA_OF_ASC_NODE":144.4724,"ARG_OF_PERICENTER":252.6076,"MEAN_ANOMALY":107.4643,"EPHEMERIS_TYPE":0,"CLASSIFICATION_TYPE":"U","NORAD_CAT_ID":49005,"ELEMENT_SET_NO":999,"REV_AT_EPOCH":26003,"BSTAR":0.0012998,"MEAN_MOTION_DOT":0.01706709,"MEAN_MOTION_DDOT":0.0026639},{"OBJECT_NAME":"STARLINK-3269","OBJECT_ID":"2021-125AQ","EPOCH":"2026-03-04T16:35:28.515264","MEAN_MOTION":16.23589858,"ECCENTRICITY":0.0009737,"INCLINATION":53.1953,"RA_OF_ASC_NODE":155.8783,"ARG_OF_PERICENTER":339.0732,"MEAN_ANOMALY":20.9909,"EPHEMERIS_TYPE":0,"CLASSIFICATION_TYPE":"U","NORAD_CAT_ID":50194,"ELEMENT_SET_NO":999,"REV_AT_EPOCH":23752,"BSTAR":0.0015017,"MEAN_MOTION_DOT":0.04021278,"MEAN_MOTION_DDOT":1.1937e-5},{"OBJECT_NAME":"LYNK TOWER 1","OBJECT_ID":"2022-033F","EPOCH":"2026-03-04T05:15:12.197088","MEAN_MOTION":16.09956223,"ECCENTRICITY":0.0005931,"INCLINATION":97.2538,"RA_OF_ASC_NODE":168.4303,"ARG_OF_PERICENTER":200.6516,"MEAN_ANOMALY":159.4529,"EPHEMERIS_TYPE":0,"CLASSIFICATION_TYPE":"U","NORAD_CAT_ID":52162,"ELEMENT_SET_NO":999,"REV_AT_EPOCH":22036,"BSTAR":0.00081573213,"MEAN_MOTION_DOT":0.00752707,"MEAN_MOTION_DDOT":0.0003123087},{"OBJECT_NAME":"STARLINK-3767","OBJECT_ID":"2022-045AX","EPOCH":"2026-03-04T19:34:28.900992","MEAN_MOTION":16.00912442,"ECCENTRICITY":0.0002131,"INCLINATION":53.2118,"RA_OF_ASC_NODE":197.1968,"ARG_OF_PERICENTER":116.2646,"MEAN_ANOMALY":243.8605,"EPHEMERIS_TYPE":0,"CLASSIFICATION_TYPE":"U","NORAD_CAT_ID":52376,"ELEMENT_SET_NO":999,"REV_AT_EPOCH":21538,"BSTAR":0.002075,"MEAN_MOTION_DOT":0.01135811,"MEAN_MOTION_DDOT":0.00067446},{"OBJECT_NAME":"NUSAT-28 (ALICE LEE)","OBJECT_ID":"2022-057R","EPOCH":"2026-03-04T19:54:17.071200","MEAN_MOTION":15.97071564,"ECCENTRICITY":0.0007271,"INCLINATION":97.4997,"RA_OF_ASC_NODE":213.1869,"ARG_OF_PERICENTER":287.7829,"MEAN_ANOMALY":72.2654,"EPHEMERIS_TYPE":0,"CLASSIFICATION_TYPE":"U","NORAD_CAT_ID":52747,"ELEMENT_SET_NO":999,"REV_AT_EPOCH":21127,"BSTAR":0.0012523,"MEAN_MOTION_DOT":0.00539363,"MEAN_MOTION_DDOT":0.00012448},{"OBJECT_NAME":"STARLINK-6201","OBJECT_ID":"2023-064AQ","EPOCH":"2026-03-04T20:00:03.000384","MEAN_MOTION":15.97247258,"ECCENTRICITY":0.000391,"INCLINATION":69.9954,"RA_OF_ASC_NODE":127.4501,"ARG_OF_PERICENTER":286.1026,"MEAN_ANOMALY":322.3801,"EPHEMERIS_TYPE":0,"CLASSIFICATION_TYPE":"U","NORAD_CAT_ID":56486,"ELEMENT_SET_NO":999,"REV_AT_EPOCH":590,"BSTAR":0.0026379,"MEAN_MOTION_DOT":0.01148568,"MEAN_MOTION_DDOT":0.00064871},{"OBJECT_NAME":"SHIYAN-25 (SY-25)","OBJECT_ID":"2023-087A","EPOCH":"2026-03-04T20:12:04.977792","MEAN_MOTION":16.00985261,"ECCENTRICITY":0.0011779,"INCLINATION":96.7167,"RA_OF_ASC_NODE":124.929,"ARG_OF_PERICENTER":244.8362,"MEAN_ANOMALY":115.1697,"EPHEMERIS_TYPE":0,"CLASSIFICATION_TYPE":"U","NORAD_CAT_ID":57047,"ELEMENT_SET_NO":999,"REV_AT_EPOCH":15811,"BSTAR":3.7369e-5,"MEAN_MOTION_DOT":0.00019581,"MEAN_MOTION_DDOT":2.1099e-6},{"OBJECT_NAME":"STARLINK-6151","OBJECT_ID":"2023-090T","EPOCH":"2026-03-04T17:35:31.561152","MEAN_MOTION":16.19002035,"ECCENTRICITY":0.0015263,"INCLINATION":42.9685,"RA_OF_ASC_NODE":178.9147,"ARG_OF_PERICENTER":351.084,"MEAN_ANOMALY":8.9772,"EPHEMERIS_TYPE":0,"CLASSIFICATION_TYPE":"U","NORAD_CAT_ID":57118,"ELEMENT_SET_NO":999,"REV_AT_EPOCH":15108,"BSTAR":0.0010233,"MEAN_MOTION_DOT":0.01964453,"MEAN_MOTION_DDOT":8.8965e-6},{"OBJECT_NAME":"STARLINK-30210","OBJECT_ID":"2023-096C","EPOCH":"2026-03-04T17:06:25.736832","MEAN_MOTION":16.04615991,"ECCENTRICITY":0.0024168,"INCLINATION":42.9631,"RA_OF_ASC_NODE":166.7551,"ARG_OF_PERICENTER":7.6172,"MEAN_ANOMALY":352.5071,"EPHEMERIS_TYPE":0,"CLASSIFICATION_TYPE":"U","NORAD_CAT_ID":57292,"ELEMENT_SET_NO":999,"REV_AT_EPOCH":14771,"BSTAR":0.00137,"MEAN_MOTION_DOT":0.00989592,"MEAN_MOTION_DDOT":0.00051802},{"OBJECT_NAME":"STARLINK-30232","OBJECT_ID":"2023-096P","EPOCH":"2026-03-04T17:41:03.045120","MEAN_MOTION":16.05141302,"ECCENTRICITY":0.0023819,"INCLINATION":42.9705,"RA_OF_ASC_NODE":166.1845,"ARG_OF_PERICENTER":8.449,"MEAN_ANOMALY":351.6787,"EPHEMERIS_TYPE":0,"CLASSIFICATION_TYPE":"U","NORAD_CAT_ID":57303,"ELEMENT_SET_NO":999,"REV_AT_EPOCH":14770,"BSTAR":0.0012982,"MEAN_MOTION_DOT":0.00968144,"MEAN_MOTION_DDOT":0.00049776},{"OBJECT_NAME":"QIANKUN-1","OBJECT_ID":"2023-103B","EPOCH":"2026-03-04T12:56:19.761504","MEAN_MOTION":16.08867585,"ECCENTRICITY":0.0026181,"INCLINATION":96.194,"RA_OF_ASC_NODE":115.4027,"ARG_OF_PERICENTER":168.6193,"MEAN_ANOMALY":191.5691,"EPHEMERIS_TYPE":0,"CLASSIFICATION_TYPE":"U","NORAD_CAT_ID":57422,"ELEMENT_SET_NO":999,"REV_AT_EPOCH":15048,"BSTAR":1.1119e-6,"MEAN_MOTION_DOT":4.77e-6,"MEAN_MOTION_DDOT":1.6856e-6},{"OBJECT_NAME":"OBJECT B","OBJECT_ID":"2023-104B","EPOCH":"2026-03-04T20:11:42.690912","MEAN_MOTION":15.93739527,"ECCENTRICITY":0.0002505,"INCLINATION":97.2682,"RA_OF_ASC_NODE":152.2761,"ARG_OF_PERICENTER":317.5534,"MEAN_ANOMALY":42.5547,"EPHEMERIS_TYPE":0,"CLASSIFICATION_TYPE":"U","NORAD_CAT_ID":57425,"ELEMENT_SET_NO":999,"REV_AT_EPOCH":14730,"BSTAR":0.0008448,"MEAN_MOTION_DOT":0.00303719,"MEAN_MOTION_DDOT":3.7453e-5}]
